[{"OBJECT_NAME":"STARLINK-30434","OBJECT_ID":"2023-144M","EPOCH":"2026-03-09T22:33:55.373472","MEAN_MOTION":15.26740194,"ECCENTRICITY":0.00011856,"INCLINATION":42.9981,"RA_OF_ASC_NODE":283.9638,"ARG_OF_PERICENTER":285.8456,"MEAN_ANOMALY":74.2264,"EPHEMERIS_TYPE":0,"CLASSIFICATION_TYPE":"U","NORAD_CAT_ID":57875,"ELEMENT_SET_NO":999,"REV_AT_EPOCH":13768,"BSTAR":2.2819805e-5,"MEAN_MOTION_DOT":3.53e-6,"MEAN_MOTION_DDOT":0},{"OBJECT_NAME":"STRIX-4","OBJECT_ID":"2024-137A","EPOCH":"2026-03-09T15:41:49.501824","MEAN_MOTION":15.29026224,"ECCENTRICITY":0.00168396,"INCLINATION":43.0134,"RA_OF_ASC_NODE":129.8162,"ARG_OF_PERICENTER":5.2738,"MEAN_ANOMALY":354.8289,"EPHEMERIS_TYPE":0,"CLASSIFICATION_TYPE":"U","NORAD_CAT_ID":60352,"ELEMENT_SET_NO":999,"REV_AT_EPOCH":8876,"BSTAR":0.00071819834,"MEAN_MOTION_DOT":0.0002053,"MEAN_MOTION_DDOT":0}]
